{
  "norad_id": 53624,
  "name": "STARLINK-4596",
  "history": [
    {
      "epoch": "2026-03-28T20:49:29.050176",
      "apogee_km": 540.6750310318939,
      "perigee_km": 538.8228362520213,
      "latitude_deg": 40.19441919633315,
      "longitude_deg": -14.30105536011979,
      "semi_major_axis_km": 6917.885933641957,
      "eccentricity": 0.00013387,
      "inclination_deg": 53.2166,
      "raan_deg": 147.785,
      "arg_perigee_deg": 86.3071,
      "mean_anomaly_deg": 273.8074,
      "mean_motion_rev_day": 15.08838186
    }
  ]
}